#aV2019 10  9  0  0  0.00000000     288 DD+AD WGS84 FIT  NGA
## 2074 259200.00000000   300.00000000 58765 0.0000000000000
+   31     1  2  3  5  6  7  8  9 10 11 12 13 14 15 16 17 18
+         19 20 21 22 23 24 25 26 27 28 29 30 31 32  0  0  0
+          0  0  0  0  0  0  0  0  0  0  0  0  0  0  0  0  0
+          0  0  0  0  0  0  0  0  0  0  0  0  0  0  0  0  0
+          0  0  0  0  0  0  0  0  0  0  0  0  0  0  0  0  0
++         2  2  2  2  2  2  2  2  2  2  2  2  2  2  2  2  2
++         2  2  2  2  2  2  2  2  2  2  2  2  2  2  0  0  0
++         0  0  0  0  0  0  0  0  0  0  0  0  0  0  0  0  0
++         0  0  0  0  0  0  0  0  0  0  0  0  0  0  0  0  0
++         0  0  0  0  0  0  0  0  0  0  0  0  0  0  0  0  0
%c cc cc ccc ccc cccc cccc cccc cccc ccccc ccccc ccccc ccccc
%c cc cc ccc ccc cccc cccc cccc cccc ccccc ccccc ccccc ccccc
%f  0.0000000  0.000000000  0.00000000000  0.000000000000000
%f  0.0000000  0.000000000  0.00000000000  0.000000000000000
%i    0    0    0    0      0      0      0      0         0
%i    0    0    0    0      0      0      0      0         0
/*      NGA, ST. LOUIS,MO.                                  
/*   EPHEMERIS COMPUTED FROM 2 DAYS OF DATA                 
/*   EPOCHA v5 SMOOTHER                                     
/*   G1762 IERS2010 SATAF SATAPC                            
*  2019 10  9  5 25  0.00000000
P  1   7537.604425 -18505.612851 -17536.806484   -156.173148                    
V  1  19513.647071 -10176.358399  19656.000584     -0.133342                    
P  2 -21597.574296  15310.772904   -183.227057   -322.042348                    
V  2  -1012.643219  -3081.259656 -31742.567492     -0.079531                    
P  3  -4320.180809 -17652.764548 -19457.575700    -20.122973                    
V  3  22192.316534  10554.392157 -14458.774203     -0.046871                    
P  5 -16115.049348   7611.554833  19616.616574     -2.147004                    
V  5 -21975.315735 -12358.976634 -12968.357654     -0.003671                    
P  6 -22608.816785   3365.006298 -13506.833111    -84.192859                    
V  6  13607.340689 -10646.103686 -25324.027628     -0.129236                    
P  7  -9226.650592 -12499.818524  21838.994230   -123.221998                    
V  7  23215.256564 -13923.719948   1388.766869     -0.080452                    
P  8   5928.308519 -23667.275961  10263.363735     -9.283087                    
V  8   2978.536758  12916.000924  28360.769822     -0.013185                    
P  9  -8109.145854 -23266.081612   9858.750497    -51.859464                    
V  9   2154.822430 -12720.206320 -28115.220882     -0.100062                    
P 10  24140.371164  11140.491366  -2165.149200    -86.592266                    
V 10   1285.881967   3557.204865  31518.096915     -0.155039                    
P 11   5689.700827 -24163.438953 -10367.090732   -483.600020                    
V 11   9548.095752  -8687.726269  26532.635469      0.112513                    
P 12  -1213.461433  16095.291406 -21337.033931    195.926895                    
V 12 -22719.616283 -13659.606706  -8945.491505     -0.038648                    
P 13 -12696.065310  16683.665583  16149.933193    -39.893941                    
V 13    102.993425 -20811.970974  21491.764311      0.021531                    
P 14  15078.499662  -2363.739469 -21398.080042    -57.108153                    
V 14   -873.029349  27952.223134  -3826.610319      0.020219                    
P 15  -3532.488241  24447.617340   8934.111247   -281.213828                    
V 15  -5374.387687 -11314.818050  28335.991938      0.027211                    
P 16  17871.728244  -3707.181516  19263.010445    -81.561058                    
V 16  20170.009608  14226.351414 -15397.967903     -0.035782                    
P 17 -13573.734746  -8647.857577 -20728.854604    140.768646                    
V 17   1310.407311 -27180.586043  10197.982965      0.072259                    
P 18  14401.431451 -19577.978703 -11097.843323     91.708465                    
V 18  12424.761424  -5579.600946  27310.494206      0.027698                    
P 19 -14852.913757   -848.151271 -22300.579484   -256.260919                    
V 19   1888.674515 -27465.539926   -190.914897      0.052284                    
P 20  20964.505215  14356.516569   7944.930171    527.143397                    
V 20 -10742.116500   -534.073675  28744.237441      0.001308                    
P 21  13188.616346   9660.685242  21698.809808   -105.412988                    
V 21 -20674.297852  15440.559171   6103.801308      0.062725                    
P 22   3633.091257 -15570.031168 -20997.908835   -762.320580                    
V 22  25145.619391  10620.112461  -3392.992939     -0.033014                    
P 23  -1244.744328 -26310.860085   -224.905023   -162.471229                    
V 23   3736.177822    497.268097 -31626.644392      0.021352                    
P 24  -8777.236822  19827.581259 -15268.860161     -3.188398                    
V 24 -17339.947578   8886.328708  22090.694107     -0.005954                    
P 25  13638.566922  18295.781581 -14014.825152    -14.866902                    
V 25 -16083.840783  -6671.222486 -24486.031719     -0.010508                    
P 26  23616.237996   2067.974607  12153.857012     57.343138                    
V 26  12672.632853   9114.727627 -25952.041036      0.086365                    
P 27  12239.583309 -13776.615570  18895.417764    -81.616820                    
V 27   2163.616904  24232.830085  16463.771353     -0.122665                    
P 28 -22793.021242 -13206.017894  -2271.574695    759.665844                    
V 28  -1751.418481  -3943.289593  32086.470216     -0.012659                    
P 29   4734.895471  24716.345544   8421.130961     76.237140                    
V 29  -2252.295049  10647.901667 -29891.047893     -0.102018                    
P 30 -18902.816872  -4560.357134  18210.112972    -57.663534                    
V 30  19190.720445 -12891.396321  16526.817549     -0.081276                    
P 31  23749.233784  -4496.106570 -11524.670739      4.916940                    
V 31 -11426.457393   9105.517924 -26679.667517     -0.025949                    
P 32  14795.297576   7946.651474 -20543.232279     85.075653                    
V 32    150.990010  26221.610528  10096.396051      0.130693                    
EOF
